[{"OBJECT_NAME":"STARLINK-5213","OBJECT_ID":"2022-136AU","EPOCH":"2026-03-09T22:17:07.458720","MEAN_MOTION":15.08823269,"ECCENTRICITY":0.00011669,"INCLINATION":53.2186,"RA_OF_ASC_NODE":332.7986,"ARG_OF_PERICENTER":91.3402,"MEAN_ANOMALY":268.7724,"EPHEMERIS_TYPE":0,"CLASSIFICATION_TYPE":"U","NORAD_CAT_ID":54093,"ELEMENT_SET_NO":999,"REV_AT_EPOCH":18702,"BSTAR":0.00015492281,"MEAN_MOTION_DOT":2.178e-5,"MEAN_MOTION_DDOT":0},{"OBJECT_NAME":"DIAMANT R\/B","OBJECT_ID":"1967-011B","EPOCH":"2026-03-09T23:01:25.838112","MEAN_MOTION":14.34400418,"ECCENTRICITY":0.03301408,"INCLINATION":39.9445,"RA_OF_ASC_NODE":294.6723,"ARG_OF_PERICENTER":69.1567,"MEAN_ANOMALY":294.4228,"EPHEMERIS_TYPE":0,"CLASSIFICATION_TYPE":"U","NORAD_CAT_ID":2671,"ELEMENT_SET_NO":999,"REV_AT_EPOCH":4127,"BSTAR":0.00063874557,"MEAN_MOTION_DOT":3.249e-5,"MEAN_MOTION_DDOT":0}]
